[{"OBJECT_NAME":"STARLINK-30839","OBJECT_ID":"2023-170D","EPOCH":"2026-03-09T09:46:17.730624","MEAN_MOTION":15.26735182,"ECCENTRICITY":0.00033949,"INCLINATION":43.0028,"RA_OF_ASC_NODE":195.1906,"ARG_OF_PERICENTER":147.1104,"MEAN_ANOMALY":212.9959,"EPHEMERIS_TYPE":0,"CLASSIFICATION_TYPE":"U","NORAD_CAT_ID":58209,"ELEMENT_SET_NO":999,"REV_AT_EPOCH":13026,"BSTAR":-3.1104021e-5,"MEAN_MOTION_DOT":-1.095e-5,"MEAN_MOTION_DDOT":0},{"OBJECT_NAME":"GEOSCAN 5 (RS92S5)","OBJECT_ID":"2025-155R","EPOCH":"2026-03-09T22:01:07.273920","MEAN_MOTION":15.30265233,"ECCENTRICITY":0.00070849,"INCLINATION":97.4462,"RA_OF_ASC_NODE":37.7456,"ARG_OF_PERICENTER":154.5846,"MEAN_ANOMALY":205.5745,"EPHEMERIS_TYPE":0,"CLASSIFICATION_TYPE":"U","NORAD_CAT_ID":64891,"ELEMENT_SET_NO":999,"REV_AT_EPOCH":6562,"BSTAR":0.00068639307,"MEAN_MOTION_DOT":0.00020065,"MEAN_MOTION_DDOT":0}]
